{
  "type": "FeatureCollection",
  "features": [
    {
      "type": "Feature",
      "properties": {
        "norad_id": 24876,
        "name": "GPS BIIR-2  (PRN 13)",
        "group": "gps-ops",
        "lat": 53.0699698678204,
        "lon": -138.50617147726177,
        "alt_km": 20003.448760260373,
        "timestamp": "2025-12-15T20:48:54.142278+00:00",
        "meta_object_name": "GPS BIIR-2  (PRN 13)",
        "meta_object_id": "1997-035A",
        "meta_epoch": "2025-12-14T05:28:55.073280",
        "meta_mean_motion": 2.00563668,
        "meta_eccentricity": 0.0096778,
        "meta_inclination": 55.8959,
        "meta_ra_of_asc_node": 105.8106,
        "meta_arg_of_pericenter": 56.9864,
        "meta_mean_anomaly": 303.9153,
        "meta_ephemeris_type": 0,
        "meta_classification_type": "U",
        "meta_norad_cat_id": 24876,
        "meta_element_set_no": 999,
        "meta_rev_at_epoch": 20824,
        "meta_bstar": 0,
        "meta_mean_motion_dot": -5e-08,
        "meta_mean_motion_ddot": 0,
        "tle_line1": "1 24876U 97035A   25348.22841520 -.00000005  00000+0  00000+0 0  9991",
        "tle_line2": "2 24876  55.8959 105.8106 0096778  56.9864 303.9153  2.00563668208242"
      },
      "geometry": {
        "type": "Point",
        "coordinates": [
          -138.50617147726177,
          53.0699698678204
        ]
      }
    },
    {
      "type": "Feature",
      "properties": {
        "norad_id": 26360,
        "name": "GPS BIIR-4  (PRN 20)",
        "group": "gps-ops",
        "lat": -12.986648405104471,
        "lon": -143.9942251357153,
        "alt_km": 20112.080063481688,
        "timestamp": "2025-12-15T20:48:54.142305+00:00",
        "meta_object_name": "GPS BIIR-4  (PRN 20)",
        "meta_object_id": "2000-025A",
        "meta_epoch": "2025-12-14T20:00:34.863840",
        "meta_mean_motion": 2.00567621,
        "meta_eccentricity": 0.00388872,
        "meta_inclination": 55.0464,
        "meta_ra_of_asc_node": 26.7531,
        "meta_arg_of_pericenter": 242.1971,
        "meta_mean_anomaly": 287.7489,
        "meta_ephemeris_type": 0,
        "meta_classification_type": "U",
        "meta_norad_cat_id": 26360,
        "meta_element_set_no": 999,
        "meta_rev_at_epoch": 18757,
        "meta_bstar": 0,
        "meta_mean_motion_dot": -9.4e-07,
        "meta_mean_motion_ddot": 0,
        "tle_line1": "1 26360U 00025A   25348.83373685 -.00000094  00000+0  00000+0 0  9991",
        "tle_line2": "2 26360  55.0464  26.7531 0038887 242.1971 287.7489  2.00567621187579"
      },
      "geometry": {
        "type": "Point",
        "coordinates": [
          -143.9942251357153,
          -12.986648405104471
        ]
      }
    },
    {
      "type": "Feature",
      "properties": {
        "norad_id": 26407,
        "name": "GPS BIIR-5  (PRN 22)",
        "group": "gps-ops",
        "lat": 29.657106990170806,
        "lon": -113.95193270409713,
        "alt_km": 20204.965980788147,
        "timestamp": "2025-12-15T20:48:54.142321+00:00",
        "meta_object_name": "GPS BIIR-5  (PRN 22)",
        "meta_object_id": "2000-040A",
        "meta_epoch": "2025-12-14T13:17:49.888896",
        "meta_mean_motion": 2.00568039,
        "meta_eccentricity": 0.01259105,
        "meta_inclination": 54.8904,
        "meta_ra_of_asc_node": 222.4968,
        "meta_arg_of_pericenter": 301.8439,
        "meta_mean_anomaly": 225.766,
        "meta_ephemeris_type": 0,
        "meta_classification_type": "U",
        "meta_norad_cat_id": 26407,
        "meta_element_set_no": 999,
        "meta_rev_at_epoch": 18624,
        "meta_bstar": 0,
        "meta_mean_motion_dot": 3.9e-07,
        "meta_mean_motion_ddot": 0,
        "tle_line1": "1 26407U 00040A   25348.55404964  .00000039  00000+0  00000+0 0  9992",
        "tle_line2": "2 26407  54.8904 222.4968 0125910 301.8439 225.7660  2.00568039186242"
      },
      "geometry": {
        "type": "Point",
        "coordinates": [
          -113.95193270409713,
          29.657106990170806
        ]
      }
    },
    {
      "type": "Feature",
      "properties": {
        "norad_id": 27663,
        "name": "GPS BIIR-8  (PRN 16)",
        "group": "gps-ops",
        "lat": 5.563254839369584,
        "lon": 38.3406772754726,
        "alt_km": 20380.93686098314,
        "timestamp": "2025-12-15T20:48:54.142335+00:00",
        "meta_object_name": "GPS BIIR-8  (PRN 16)",
        "meta_object_id": "2003-005A",
        "meta_epoch": "2025-12-14T15:32:18.245760",
        "meta_mean_motion": 2.00570858,
        "meta_eccentricity": 0.01475389,
        "meta_inclination": 54.9229,
        "meta_ra_of_asc_node": 222.3024,
        "meta_arg_of_pericenter": 51.8264,
        "meta_mean_anomaly": 319.116,
        "meta_ephemeris_type": 0,
        "meta_classification_type": "U",
        "meta_norad_cat_id": 27663,
        "meta_element_set_no": 999,
        "meta_rev_at_epoch": 16761,
        "meta_bstar": 0,
        "meta_mean_motion_dot": 4.1e-07,
        "meta_mean_motion_ddot": 0,
        "tle_line1": "1 27663U 03005A   25348.64743340  .00000041  00000+0  00000+0 0  9998",
        "tle_line2": "2 27663  54.9229 222.3024 0147538  51.8264 319.1160  2.00570858167613"
      },
      "geometry": {
        "type": "Point",
        "coordinates": [
          38.3406772754726,
          5.563254839369584
        ]
      }
    },
    {
      "type": "Feature",
      "properties": {
        "norad_id": 28190,
        "name": "GPS BIIR-11 (PRN 19)",
        "group": "gps-ops",
        "lat": -23.592558982690875,
        "lon": -94.73208564584087,
        "alt_km": 20461.04940819401,
        "timestamp": "2025-12-15T20:48:54.142348+00:00",
        "meta_object_name": "GPS BIIR-11 (PRN 19)",
        "meta_object_id": "2004-009A",
        "meta_epoch": "2025-12-14T15:49:47.343936",
        "meta_mean_motion": 2.00560762,
        "meta_eccentricity": 0.01083648,
        "meta_inclination": 54.9839,
        "meta_ra_of_asc_node": 283.1415,
        "meta_arg_of_pericenter": 167.6892,
        "meta_mean_anomaly": 10.6801,
        "meta_ephemeris_type": 0,
        "meta_classification_type": "U",
        "meta_norad_cat_id": 28190,
        "meta_element_set_no": 999,
        "meta_rev_at_epoch": 15924,
        "meta_bstar": 0,
        "meta_mean_motion_dot": -7.9e-07,
        "meta_mean_motion_ddot": 0,
        "tle_line1": "1 28190U 04009A   25348.65957574 -.00000079  00000+0  00000+0 0  9998",
        "tle_line2": "2 28190  54.9839 283.1415 0108364 167.6892  10.6801  2.00560762159240"
      },
      "geometry": {
        "type": "Point",
        "coordinates": [
          -94.73208564584087,
          -23.592558982690875
        ]
      }
    },
    {
      "type": "Feature",
      "properties": {
        "norad_id": 28474,
        "name": "GPS BIIR-13 (PRN 02)",
        "group": "gps-ops",
        "lat": 26.211413425649493,
        "lon": -7.741060638560531,
        "alt_km": 20118.203867535398,
        "timestamp": "2025-12-15T20:48:54.142361+00:00",
        "meta_object_name": "GPS BIIR-13 (PRN 02)",
        "meta_object_id": "2004-045A",
        "meta_epoch": "2025-12-12T12:01:27.782400",
        "meta_mean_motion": 2.00569519,
        "meta_eccentricity": 0.0170757,
        "meta_inclination": 55.2408,
        "meta_ra_of_asc_node": 332.4152,
        "meta_arg_of_pericenter": 309.2412,
        "meta_mean_anomaly": 170.6572,
        "meta_ephemeris_type": 0,
        "meta_classification_type": "U",
        "meta_norad_cat_id": 28474,
        "meta_element_set_no": 999,
        "meta_rev_at_epoch": 15468,
        "meta_bstar": 0,
        "meta_mean_motion_dot": -8.8e-07,
        "meta_mean_motion_ddot": 0,
        "tle_line1": "1 28474U 04045A   25346.50101600 -.00000088  00000+0  00000+0 0  9996",
        "tle_line2": "2 28474  55.2408 332.4152 0170757 309.2412 170.6572  2.00569519154688"
      },
      "geometry": {
        "type": "Point",
        "coordinates": [
          -7.741060638560531,
          26.211413425649493
        ]
      }
    },
    {
      "type": "Feature",
      "properties": {
        "norad_id": 28874,
        "name": "GPS BIIRM-1 (PRN 17)",
        "group": "gps-ops",
        "lat": -7.502766402107843,
        "lon": -84.72439828852347,
        "alt_km": 19989.393619551945,
        "timestamp": "2025-12-15T20:48:54.142373+00:00",
        "meta_object_name": "GPS BIIRM-1 (PRN 17)",
        "meta_object_id": "2005-038A",
        "meta_epoch": "2025-12-14T21:27:36.248256",
        "meta_mean_motion": 2.00578318,
        "meta_eccentricity": 0.01315823,
        "meta_inclination": 55.03,
        "meta_ra_of_asc_node": 280.6141,
        "meta_arg_of_pericenter": 293.5769,
        "meta_mean_anomaly": 73.3073,
        "meta_ephemeris_type": 0,
        "meta_classification_type": "U",
        "meta_norad_cat_id": 28874,
        "meta_element_set_no": 999,
        "meta_rev_at_epoch": 14814,
        "meta_bstar": 0,
        "meta_mean_motion_dot": -7.5e-07,
        "meta_mean_motion_ddot": 0,
        "tle_line1": "1 28874U 05038A   25348.89416954 -.00000075  00000+0  00000+0 0  9994",
        "tle_line2": "2 28874  55.0300 280.6141 0131582 293.5769  73.3073  2.00578318148142"
      },
      "geometry": {
        "type": "Point",
        "coordinates": [
          -84.72439828852347,
          -7.502766402107843
        ]
      }
    }
  ]
}